{
  "type": "FeatureCollection",
  "features": [
    {
      "type": "Feature",
      "properties": {
        "zone_id": "aoi_leh_immediate",
        "zone_type": "aoi",
        "name": "Leh town and immediate surroundings"
      },
      "geometry": {
        "type": "Polygon",
        "coordinates": [
          [
            [
              77.5948373,
              34.1813484
            ],
            [
              77.5864821,
              34.1836524
            ],
            [
              77.5760382,
              34.1771244
            ],
            [
              77.5655942,
              34.165027
            ],
            [
              77.5530615,
              34.14755
            ],
            [
              77.5356549,
              34.1375615
            ],
            [
              77.5147669,
              34.1331432
            ],
            [
              77.5284601,
              34.1195024
            ],
            [
              77.549116,
              34.1122008
            ],
            [
              77.5716285,
              34.1114322
            ],
            [
              77.5862501,
              34.1392904
            ],
            [
              77.5953015,
              34.1596499
            ],
            [
              77.5999433,
              34.1694437
            ],
            [
              77.5959978,
              34.1767403
            ],
            [
              77.5948373,
              34.1813484
            ]
          ]
        ]
      }
    },
    {
      "type": "Feature",
      "properties": {
        "zone_id": "urban_01",
        "zone_type": "urban",
        "name": "Leh urban settlement"
      },
      "geometry": {
        "type": "Polygon",
        "coordinates": [
          [
            [
              77.5872225,
              34.1861247
            ],
            [
              77.5933377,
              34.1846441
            ],
            [
              77.5921593,
              34.1710208
            ],
            [
              77.5856401,
              34.1665649
            ],
            [
              77.5910098,
              34.1630049
            ],
            [
              77.5952797,
              34.1658523
            ],
            [
              77.5972554,
              34.1674425
            ],
            [
              77.5976556,
              34.1687268
            ],
            [
              77.5986176,
              34.1688622
            ],
            [
              77.5988874,
              34.1691412
            ],
            [
              77.6020519,
              34.1700332
            ],
            [
              77.603176,
              34.1703033
            ],
            [
              77.6032274,
              34.1694222
            ],
            [
              77.6027039,
              34.1687267
            ],
            [
              77.6019953,
              34.1682811
            ],
            [
              77.6011459,
              34.1676282
            ],
            [
              77.6004834,
              34.1666534
            ],
            [
              77.5999754,
              34.1659281
            ],
            [
              77.6012691,
              34.1655989
            ],
            [
              77.6002528,
              34.1647945
            ],
            [
              77.5989556,
              34.1652097
            ],
            [
              77.5982034,
              34.1648789
            ],
            [
              77.5984356,
              34.1644598
            ],
            [
              77.5977377,
              34.1645024
            ],
            [
              77.5977179,
              34.163843
            ],
            [
              77.597552,
              34.163478
            ],
            [
              77.5970165,
              34.1635149
            ],
            [
              77.5967653,
              34.1626365
            ],
            [
              77.6004501,
              34.1625779
            ],
            [
              77.601017,
              34.1607016
            ],
            [
              77.588758,
              34.1605257
            ],
            [
              77.586443,
              34.1578207
            ],
            [
              77.5839799,
              34.1559602
            ],
            [
              77.5830765,
              34.1534744
            ],
            [
              77.584309,
              34.1480483
            ],
            [
              77.5859416,
              34.1435883
            ],
            [
              77.5856672,
              34.1412347
            ],
            [
              77.5812878,
              34.1465945
            ],
            [
              77.5794569,
              34.140149
            ],
            [
              77.5754267,
              34.1433005
            ],
            [
              77.5737408,
              34.1396927
            ],
            [
              77.5711126,
              34.1375125
            ],
            [
              77.5667502,
              34.1290874
            ],
            [
              77.5617984,
              34.120118
            ],
            [
              77.5505961,
              34.1256149
            ],
            [
              77.5473045,
              34.1272084
            ],
            [
              77.5424156,
              34.1209317
            ],
            [
              77.5313331,
              34.1249498
            ],
            [
              77.5330362,
              34.1284045
            ],
            [
              77.5420355,
              34.1259829
            ],
            [
              77.5495956,
              34.1335287
            ],
            [
              77.5594658,
              34.1351736
            ],
            [
              77.5602262,
              34.1374765
            ],
            [
              77.5644039,
              34.1393765
            ],
            [
              77.5672113,
              34.1447122
            ],
            [
              77.5656622,
              34.1453025
            ],
            [
              77.5584605,
              34.1428883
            ],
            [
              77.5536678,
              34.1470785
            ],
            [
              77.5532255,
              34.1479075
            ],
            [
              77.5686026,
              34.1587052
            ],
            [
              77.5689704,
              34.163255
            ],
            [
              77.5678631,
              34.1656713
            ],
            [
              77.5720486,
              34.1696566
            ],
            [
              77.5763888,
              34.1720471
            ],
            [
              77.577227,
              34.1753365
            ],
            [
              77.5793509,
              34.1784163
            ],
            [
              77.5819063,
              34.1790408
            ],
            [
              77.5834622,
              34.1821934
            ],
            [
              77.5855203,
              34.1841987
            ],
            [
              77.5860925,
              34.182759
            ],
            [
              77.5866367,
              34.182914
            ],
            [
              77.586747,
              34.1845165
            ],
            [
              77.5875245,
              34.1851016
            ],
            [
              77.5872225,
              34.1861247
            ]
          ]
        ]
      }
    },
    {
      "type": "Feature",
      "properties": {
        "zone_id": "agriculture_01",
        "zone_type": "agricultural",
        "name": "Irrigated agricultural land"
      },
      "geometry": {
        "type": "Polygon",
        "coordinates": [
          [
            [
              77.5061117,
              34.1365697
            ],
            [
              77.5040256,
              34.1350075
            ],
            [
              77.5065201,
              34.1313746
            ],
            [
              77.5093513,
              34.1291544
            ],
            [
              77.5120831,
              34.1284965
            ],
            [
              77.5145169,
              34.1262352
            ],
            [
              77.5165037,
              34.1238915
            ],
            [
              77.5194342,
              34.1233981
            ],
            [
              77.5218612,
              34.1221651
            ],
            [
              77.5218612,
              34.119369
            ],
            [
              77.5258845,
              34.1161615
            ],
            [
              77.5344773,
              34.1142699
            ],
            [
              77.5374575,
              34.1136119
            ],
            [
              77.540686,
              34.1129129
            ],
            [
              77.5389476,
              34.1154875
            ],
            [
              77.5374078,
              34.1169268
            ],
            [
              77.5386495,
              34.1179548
            ],
            [
              77.5394939,
              34.1168445
            ],
            [
              77.5435172,
              34.11668
            ],
            [
              77.5439145,
              34.1187772
            ],
            [
              77.5407853,
              34.120422
            ],
            [
              77.5395436,
              34.1206687
            ],
            [
              77.5383019,
              34.1233003
            ],
            [
              77.534378,
              34.1246572
            ],
            [
              77.5336326,
              34.1238528
            ],
            [
              77.5326503,
              34.1243352
            ],
            [
              77.5322673,
              34.1239493
            ],
            [
              77.5300862,
              34.1244179
            ],
            [
              77.529461,
              34.1247485
            ],
            [
              77.5285952,
              34.1238526
            ],
            [
              77.527383,
              34.1249083
            ],
            [
              77.526384,
              34.124288
            ],
            [
              77.5249493,
              34.1236341
            ],
            [
              77.521636,
              34.1251778
            ],
            [
              77.5207702,
              34.1261013
            ],
            [
              77.5181588,
              34.1287882
            ],
            [
              77.5170433,
              34.1290501
            ],
            [
              77.5136162,
              34.1310999
            ],
            [
              77.5107535,
              34.1326584
            ],
            [
              77.5084892,
              34.1344638
            ],
            [
              77.50769,
              34.1346154
            ],
            [
              77.5077732,
              34.1349186
            ],
            [
              77.5061117,
              34.1365697
            ]
          ]
        ]
      }
    },
    {
      "type": "Feature",
      "properties": {
        "zone_id": "natural_01",
        "zone_type": "natural",
        "name": "Natural mountain"
      },
      "geometry": {
        "type": "Polygon",
        "coordinates": [
          [
            [
              77.5244153,
              34.1329401
            ],
            [
              77.5341761,
              34.1427695
            ],
            [
              77.5452926,
              34.1447432
            ],
            [
              77.5479204,
              34.152035
            ],
            [
              77.5498526,
              34.1565761
            ],
            [
              77.5569632,
              34.1526746
            ],
            [
              77.5650012,
              34.1577273
            ],
            [
              77.5670104,
              34.1658455
            ],
            [
              77.5686335,
              34.172496
            ],
            [
              77.5612138,
              34.1723042
            ],
            [
              77.5585086,
              34.1698742
            ],
            [
              77.5621412,
              34.1636711
            ],
            [
              77.5574266,
              34.1604095
            ],
            [
              77.5483838,
              34.1589386
            ],
            [
              77.5441329,
              34.1542697
            ],
            [
              77.538898,
              34.1504966
            ],
            [
              77.5344153,
              34.1472345
            ],
            [
              77.5243677,
              34.13604
            ],
            [
              77.5244153,
              34.1329401
            ]
          ]
        ]
      }
    }
  ]
}

